[{"OBJECT_NAME":"STARLINK-5671","OBJECT_ID":"2023-013J","EPOCH":"2026-03-08T00:05:56.981472","MEAN_MOTION":15.02536737,"ECCENTRICITY":0.0001158,"INCLINATION":43.0043,"RA_OF_ASC_NODE":309.684,"ARG_OF_PERICENTER":266.2254,"MEAN_ANOMALY":93.8456,"EPHEMERIS_TYPE":0,"CLASSIFICATION_TYPE":"U","NORAD_CAT_ID":55339,"ELEMENT_SET_NO":999,"REV_AT_EPOCH":17145,"BSTAR":3.9786178e-5,"MEAN_MOTION_DOT":3.34e-6,"MEAN_MOTION_DDOT":0},{"OBJECT_NAME":"ELECTRON KICK STAGE R\/B","OBJECT_ID":"2024-172G","EPOCH":"2026-03-09T20:17:57.250464","MEAN_MOTION":14.97730495,"ECCENTRICITY":0.00502098,"INCLINATION":98.0041,"RA_OF_ASC_NODE":176.7734,"ARG_OF_PERICENTER":80.5411,"MEAN_ANOMALY":280.148,"EPHEMERIS_TYPE":0,"CLASSIFICATION_TYPE":"U","NORAD_CAT_ID":61226,"ELEMENT_SET_NO":999,"REV_AT_EPOCH":7982,"BSTAR":0.00056326684,"MEAN_MOTION_DOT":6.716e-5,"MEAN_MOTION_DDOT":0}]
